[{"OBJECT_NAME":"IRIDE-MS2-HEO-8","OBJECT_ID":"2025-135BM","EPOCH":"2026-03-09T23:04:08.225184","MEAN_MOTION":14.94180464,"ECCENTRICITY":0.0003471,"INCLINATION":97.7603,"RA_OF_ASC_NODE":184.687,"ARG_OF_PERICENTER":319.3554,"MEAN_ANOMALY":40.7407,"EPHEMERIS_TYPE":0,"CLASSIFICATION_TYPE":"U","NORAD_CAT_ID":64587,"ELEMENT_SET_NO":999,"REV_AT_EPOCH":3909,"BSTAR":0.00027897299,"MEAN_MOTION_DOT":2.931e-5,"MEAN_MOTION_DDOT":0},{"OBJECT_NAME":"CZ-4B DEB","OBJECT_ID":"2013-057E","EPOCH":"2026-03-09T12:40:09.880896","MEAN_MOTION":14.56057375,"ECCENTRICITY":0.01852508,"INCLINATION":74.8708,"RA_OF_ASC_NODE":14.8729,"ARG_OF_PERICENTER":187.9128,"MEAN_ANOMALY":171.9112,"EPHEMERIS_TYPE":0,"CLASSIFICATION_TYPE":"U","NORAD_CAT_ID":40532,"ELEMENT_SET_NO":999,"REV_AT_EPOCH":57698,"BSTAR":0.00064872714,"MEAN_MOTION_DOT":3.583e-5,"MEAN_MOTION_DDOT":0}]
